[{"OBJECT_NAME":"JINJUSAT-1B","OBJECT_ID":"2025-052A","EPOCH":"2026-03-09T15:55:38.242848","MEAN_MOTION":15.30194857,"ECCENTRICITY":0.00055504,"INCLINATION":97.4113,"RA_OF_ASC_NODE":325.4613,"ARG_OF_PERICENTER":82.193,"MEAN_ANOMALY":277.9941,"EPHEMERIS_TYPE":0,"CLASSIFICATION_TYPE":"U","NORAD_CAT_ID":63210,"ELEMENT_SET_NO":999,"REV_AT_EPOCH":5486,"BSTAR":0.00068430401,"MEAN_MOTION_DOT":0.00019955,"MEAN_MOTION_DDOT":0},{"OBJECT_NAME":"STARLINK-33615","OBJECT_ID":"2025-065AD","EPOCH":"2026-03-09T19:19:36.183360","MEAN_MOTION":15.27559051,"ECCENTRICITY":0.00017969,"INCLINATION":43.0001,"RA_OF_ASC_NODE":106.7116,"ARG_OF_PERICENTER":268.8354,"MEAN_ANOMALY":91.2292,"EPHEMERIS_TYPE":0,"CLASSIFICATION_TYPE":"U","NORAD_CAT_ID":63426,"ELEMENT_SET_NO":999,"REV_AT_EPOCH":5285,"BSTAR":0.00090472703,"MEAN_MOTION_DOT":0.00024702,"MEAN_MOTION_DDOT":0}]
